[{"OBJECT_NAME":"HELIOS 1B","OBJECT_ID":"1999-064A","EPOCH":"2026-03-10T07:39:37.265184","MEAN_MOTION":14.87702169,"ECCENTRICITY":0.0002457,"INCLINATION":98.1688,"RA_OF_ASC_NODE":331.5811,"ARG_OF_PERICENTER":74.1956,"MEAN_ANOMALY":285.953,"EPHEMERIS_TYPE":0,"CLASSIFICATION_TYPE":"U","NORAD_CAT_ID":25977,"ELEMENT_SET_NO":999,"REV_AT_EPOCH":68535,"BSTAR":0.00025615,"MEAN_MOTION_DOT":2.275e-5,"MEAN_MOTION_DDOT":0},{"OBJECT_NAME":"TERRA","OBJECT_ID":"1999-068A","EPOCH":"2026-03-10T11:27:37.253664","MEAN_MOTION":14.61015689,"ECCENTRICITY":0.0002746,"INCLINATION":97.9593,"RA_OF_ASC_NODE":122.8822,"ARG_OF_PERICENTER":149.5117,"MEAN_ANOMALY":318.516,"EPHEMERIS_TYPE":0,"CLASSIFICATION_TYPE":"U","NORAD_CAT_ID":25994,"ELEMENT_SET_NO":999,"REV_AT_EPOCH":39519,"BSTAR":0.00012207,"MEAN_MOTION_DOT":5.54e-6,"MEAN_MOTION_DDOT":0},{"OBJECT_NAME":"SL-16 R/B","OBJECT_ID":"2000-006B","EPOCH":"2026-03-10T12:10:07.403232","MEAN_MOTION":14.15825706,"ECCENTRICITY":0.0016732,"INCLINATION":71.0009,"RA_OF_ASC_NODE":96.1189,"ARG_OF_PERICENTER":189.0411,"MEAN_ANOMALY":171.0413,"EPHEMERIS_TYPE":0,"CLASSIFICATION_TYPE":"U","NORAD_CAT_ID":26070,"ELEMENT_SET_NO":999,"REV_AT_EPOCH":34867,"BSTAR":-3.8249e-5,"MEAN_MOTION_DOT":-1.23e-6,"MEAN_MOTION_DDOT":0},{"OBJECT_NAME":"TITAN 4B R/B","OBJECT_ID":"2000-047B","EPOCH":"2026-03-10T11:47:58.224768","MEAN_MOTION":15.09572482,"ECCENTRICITY":0.0038655,"INCLINATION":67.9902,"RA_OF_ASC_NODE":38.2551,"ARG_OF_PERICENTER":34.4661,"MEAN_ANOMALY":325.8983,"EPHEMERIS_TYPE":0,"CLASSIFICATION_TYPE":"U","NORAD_CAT_ID":26474,"ELEMENT_SET_NO":999,"REV_AT_EPOCH":39303,"BSTAR":0.00034475,"MEAN_MOTION_DOT":5.514e-5,"MEAN_MOTION_DDOT":0},{"OBJECT_NAME":"ENVISAT","OBJECT_ID":"2002-009A","EPOCH":"2026-03-10T10:56:30.714720","MEAN_MOTION":14.39037348,"ECCENTRICITY":0.0001301,"INCLINATION":98.3729,"RA_OF_ASC_NODE":23.035,"ARG_OF_PERICENTER":82.8417,"MEAN_ANOMALY":27.5794,"EPHEMERIS_TYPE":0,"CLASSIFICATION_TYPE":"U","NORAD_CAT_ID":27386,"ELEMENT_SET_NO":999,"REV_AT_EPOCH":25928,"BSTAR":7.2743e-5,"MEAN_MOTION_DOT":1.82e-6,"MEAN_MOTION_DDOT":0},{"OBJECT_NAME":"IDEFIX & ARIANE 42P R/B","OBJECT_ID":"2002-021B","EPOCH":"2026-03-10T09:42:56.702016","MEAN_MOTION":14.31026889,"ECCENTRICITY":0.0011617,"INCLINATION":98.5868,"RA_OF_ASC_NODE":8.0026,"ARG_OF_PERICENTER":180.2055,"MEAN_ANOMALY":179.9125,"EPHEMERIS_TYPE":0,"CLASSIFICATION_TYPE":"U","NORAD_CAT_ID":27422,"ELEMENT_SET_NO":999,"REV_AT_EPOCH":24412,"BSTAR":0.00015668,"MEAN_MOTION_DOT":3.69e-6,"MEAN_MOTION_DDOT":0},{"OBJECT_NAME":"AQUA","OBJECT_ID":"2002-022A","EPOCH":"2026-03-10T12:21:47.765952","MEAN_MOTION":14.6197962,"ECCENTRICITY":5.57e-5,"INCLINATION":98.4176,"RA_OF_ASC_NODE":36.8951,"ARG_OF_PERICENTER":83.0515,"MEAN_ANOMALY":26.9141,"EPHEMERIS_TYPE":0,"CLASSIFICATION_TYPE":"U","NORAD_CAT_ID":27424,"ELEMENT_SET_NO":999,"REV_AT_EPOCH":26885,"BSTAR":0.0002855,"MEAN_MOTION_DOT":1.382e-5,"MEAN_MOTION_DDOT":0},{"OBJECT_NAME":"CZ-4B R/B","OBJECT_ID":"2002-024C","EPOCH":"2026-03-10T03:16:03.163008","MEAN_MOTION":14.14547639,"ECCENTRICITY":0.00504624,"INCLINATION":98.8838,"RA_OF_ASC_NODE":122.5407,"ARG_OF_PERICENTER":22.9379,"MEAN_ANOMALY":1.352,"EPHEMERIS_TYPE":0,"CLASSIFICATION_TYPE":"U","NORAD_CAT_ID":27432,"ELEMENT_SET_NO":999,"REV_AT_EPOCH":22930,"BSTAR":4.23045e-5,"MEAN_MOTION_DOT":3.8e-7,"MEAN_MOTION_DDOT":0},{"OBJECT_NAME":"MIDORI II (ADEOS-II)","OBJECT_ID":"2002-056A","EPOCH":"2026-03-10T12:05:24.337824","MEAN_MOTION":14.29285941,"ECCENTRICITY":0.0001541,"INCLINATION":98.7769,"RA_OF_ASC_NODE":27.9869,"ARG_OF_PERICENTER":41.0181,"MEAN_ANOMALY":319.1116,"EPHEMERIS_TYPE":0,"CLASSIFICATION_TYPE":"U","NORAD_CAT_ID":27597,"ELEMENT_SET_NO":999,"REV_AT_EPOCH":21041,"BSTAR":0.00017987,"MEAN_MOTION_DOT":4.12e-6,"MEAN_MOTION_DDOT":0},{"OBJECT_NAME":"H-2A R/B","OBJECT_ID":"2002-056E","EPOCH":"2026-03-10T11:37:34.349376","MEAN_MOTION":14.33761413,"ECCENTRICITY":0.0070546,"INCLINATION":98.3204,"RA_OF_ASC_NODE":29.8197,"ARG_OF_PERICENTER":158.3334,"MEAN_ANOMALY":311.4788,"EPHEMERIS_TYPE":0,"CLASSIFICATION_TYPE":"U","NORAD_CAT_ID":27601,"ELEMENT_SET_NO":999,"REV_AT_EPOCH":21422,"BSTAR":0.00013517,"MEAN_MOTION_DOT":3.45e-6,"MEAN_MOTION_DDOT":0},{"OBJECT_NAME":"CZ-4B R/B","OBJECT_ID":"2003-049C","EPOCH":"2026-03-10T11:36:40.815936","MEAN_MOTION":14.55021095,"ECCENTRICITY":0.0047289,"INCLINATION":98.688,"RA_OF_ASC_NODE":64.4197,"ARG_OF_PERICENTER":228.4356,"MEAN_ANOMALY":131.2781,"EPHEMERIS_TYPE":0,"CLASSIFICATION_TYPE":"U","NORAD_CAT_ID":28059,"ELEMENT_SET_NO":999,"REV_AT_EPOCH":18671,"BSTAR":0.00012291,"MEAN_MOTION_DOT":4.85e-6,"MEAN_MOTION_DDOT":0},{"OBJECT_NAME":"CZ-2C R/B","OBJECT_ID":"2004-012C","EPOCH":"2026-03-10T10:34:27.825312","MEAN_MOTION":15.64603996,"ECCENTRICITY":0.0012919,"INCLINATION":97.7221,"RA_OF_ASC_NODE":134.8041,"ARG_OF_PERICENTER":306.5896,"MEAN_ANOMALY":53.4173,"EPHEMERIS_TYPE":0,"CLASSIFICATION_TYPE":"U","NORAD_CAT_ID":28222,"ELEMENT_SET_NO":999,"REV_AT_EPOCH":20439,"BSTAR":0.00071185,"MEAN_MOTION_DOT":0.00069335,"MEAN_MOTION_DDOT":0},{"OBJECT_NAME":"SL-16 R/B","OBJECT_ID":"2004-021B","EPOCH":"2026-03-10T12:25:29.115840","MEAN_MOTION":14.14597679,"ECCENTRICITY":0.0004101,"INCLINATION":70.9996,"RA_OF_ASC_NODE":230.7547,"ARG_OF_PERICENTER":8.1324,"MEAN_ANOMALY":351.9864,"EPHEMERIS_TYPE":0,"CLASSIFICATION_TYPE":"U","NORAD_CAT_ID":28353,"ELEMENT_SET_NO":999,"REV_AT_EPOCH":12295,"BSTAR":-0.00010617,"MEAN_MOTION_DOT":-2.52e-6,"MEAN_MOTION_DDOT":0},{"OBJECT_NAME":"CZ-4B R/B","OBJECT_ID":"2004-035C","EPOCH":"2026-03-10T02:31:59.569248","MEAN_MOTION":15.29073214,"ECCENTRICITY":0.00309757,"INCLINATION":97.3501,"RA_OF_ASC_NODE":103.3428,"ARG_OF_PERICENTER":330.033,"MEAN_ANOMALY":29.9136,"EPHEMERIS_TYPE":0,"CLASSIFICATION_TYPE":"U","NORAD_CAT_ID":28415,"ELEMENT_SET_NO":999,"REV_AT_EPOCH":17997,"BSTAR":0.00034465502,"MEAN_MOTION_DOT":9.794e-5,"MEAN_MOTION_DDOT":0},{"OBJECT_NAME":"CZ-2C R/B","OBJECT_ID":"2004-046B","EPOCH":"2026-03-10T07:50:52.714464","MEAN_MOTION":14.26992327,"ECCENTRICITY":0.0139909,"INCLINATION":98.1982,"RA_OF_ASC_NODE":344.2713,"ARG_OF_PERICENTER":152.5682,"MEAN_ANOMALY":208.2976,"EPHEMERIS_TYPE":0,"CLASSIFICATION_TYPE":"U","NORAD_CAT_ID":28480,"ELEMENT_SET_NO":999,"REV_AT_EPOCH":10859,"BSTAR":7.1691e-5,"MEAN_MOTION_DOT":1.53e-6,"MEAN_MOTION_DDOT":0},{"OBJECT_NAME":"ARIANE 5 R/B","OBJECT_ID":"2004-049H","EPOCH":"2026-03-10T10:35:09.456288","MEAN_MOTION":14.85267584,"ECCENTRICITY":0.008388,"INCLINATION":98.2628,"RA_OF_ASC_NODE":237.9263,"ARG_OF_PERICENTER":349.476,"MEAN_ANOMALY":10.4695,"EPHEMERIS_TYPE":0,"CLASSIFICATION_TYPE":"U","NORAD_CAT_ID":28499,"ELEMENT_SET_NO":999,"REV_AT_EPOCH":14590,"BSTAR":0.00011688,"MEAN_MOTION_DOT":1.003e-5,"MEAN_MOTION_DDOT":0},{"OBJECT_NAME":"CZ-2D R/B","OBJECT_ID":"2005-024B","EPOCH":"2026-03-10T11:29:48.707808","MEAN_MOTION":15.60229062,"ECCENTRICITY":0.0005741,"INCLINATION":97.3605,"RA_OF_ASC_NODE":84.6545,"ARG_OF_PERICENTER":44.1911,"MEAN_ANOMALY":315.9803,"EPHEMERIS_TYPE":0,"CLASSIFICATION_TYPE":"U","NORAD_CAT_ID":28738,"ELEMENT_SET_NO":999,"REV_AT_EPOCH":13990,"BSTAR":0.00063901,"MEAN_MOTION_DOT":0.00052238,"MEAN_MOTION_DDOT":0}]
